CCSDS_OMM_VERS = 2.0
CREATION_DATE  = 
ORIGINATOR     = 

OBJECT_NAME    = STARLINK-36104
OBJECT_ID      = 2025-288F
CENTER_NAME    = EARTH
REF_FRAME      = TEME
TIME_SYSTEM    = UTC
MEAN_ELEMENT_THEORY = SGP/SGP4

EPOCH          = 2025-12-25T18:00:02.000160
MEAN_MOTION    = 15.63386141
ECCENTRICITY   = .0001349
INCLINATION    = 43.0005
RA_OF_ASC_NODE = 87.8808
ARG_OF_PERICENTER = 277.7935
MEAN_ANOMALY   = 321.3045

EPHEMERIS_TYPE = 0
CLASSIFICATION_TYPE = U
NORAD_CAT_ID   = 66964
ELEMENT_SET_NO = 999
REV_AT_EPOCH   = 392
BSTAR          = -.23462E-1
MEAN_MOTION_DOT = -.1959626E-1
MEAN_MOTION_DDOT = 0

CCSDS_OMM_VERS = 2.0
CREATION_DATE  = 
ORIGINATOR     = 

OBJECT_NAME    = STARLINK-36067
OBJECT_ID      = 2025-288G
CENTER_NAME    = EARTH
REF_FRAME      = TEME
TIME_SYSTEM    = UTC
MEAN_ELEMENT_THEORY = SGP/SGP4

EPOCH          = 2025-12-25T18:00:02.000160
MEAN_MOTION    = 15.63387555
ECCENTRICITY   = .0001282
INCLINATION    = 43.0004
RA_OF_ASC_NODE = 87.8765
ARG_OF_PERICENTER = 275.3863
MEAN_ANOMALY   = 325.6307

EPHEMERIS_TYPE = 0
CLASSIFICATION_TYPE = U
NORAD_CAT_ID   = 66965
ELEMENT_SET_NO = 999
REV_AT_EPOCH   = 392
BSTAR          = -.23521E-1
MEAN_MOTION_DOT = -.1963981E-1
MEAN_MOTION_DDOT = 0

CCSDS_OMM_VERS = 2.0
CREATION_DATE  = 
ORIGINATOR     = 

OBJECT_NAME    = STARLINK-36139
OBJECT_ID      = 2025-288H
CENTER_NAME    = EARTH
REF_FRAME      = TEME
TIME_SYSTEM    = UTC
MEAN_ELEMENT_THEORY = SGP/SGP4

EPOCH          = 2025-12-25T18:00:02.000160
MEAN_MOTION    = 15.63389341
ECCENTRICITY   = .0001326
INCLINATION    = 43.0005
RA_OF_ASC_NODE = 87.8714
ARG_OF_PERICENTER = 275.4422
MEAN_ANOMALY   = 327.4909

EPHEMERIS_TYPE = 0
CLASSIFICATION_TYPE = U
NORAD_CAT_ID   = 66966
ELEMENT_SET_NO = 999
REV_AT_EPOCH   = 392
BSTAR          = -.23545E-1
MEAN_MOTION_DOT = -.1965877E-1
MEAN_MOTION_DDOT = 0

CCSDS_OMM_VERS = 2.0
CREATION_DATE  = 
ORIGINATOR     = 

OBJECT_NAME    = STARLINK-36136
OBJECT_ID      = 2025-288J
CENTER_NAME    = EARTH
REF_FRAME      = TEME
TIME_SYSTEM    = UTC
MEAN_ELEMENT_THEORY = SGP/SGP4

EPOCH          = 2025-12-25T18:00:02.000160
MEAN_MOTION    = 15.63386829
ECCENTRICITY   = .0001338
INCLINATION    = 43.0004
RA_OF_ASC_NODE = 87.8666
ARG_OF_PERICENTER = 275.1960
MEAN_ANOMALY   = 329.6559

EPHEMERIS_TYPE = 0
CLASSIFICATION_TYPE = U
NORAD_CAT_ID   = 66967
ELEMENT_SET_NO = 999
REV_AT_EPOCH   = 392
BSTAR          = -.23511E-1
MEAN_MOTION_DOT = -.1963269E-1
MEAN_MOTION_DDOT = 0

CCSDS_OMM_VERS = 2.0
CREATION_DATE  = 
ORIGINATOR     = 

OBJECT_NAME    = STARLINK-36152
OBJECT_ID      = 2025-288K
CENTER_NAME    = EARTH
REF_FRAME      = TEME
TIME_SYSTEM    = UTC
MEAN_ELEMENT_THEORY = SGP/SGP4

EPOCH          = 2025-12-25T18:00:02.000160
MEAN_MOTION    = 15.63380609
ECCENTRICITY   = .0001353
INCLINATION    = 43.0001
RA_OF_ASC_NODE = 87.8618
ARG_OF_PERICENTER = 276.6352
MEAN_ANOMALY   = 330.1355

EPHEMERIS_TYPE = 0
CLASSIFICATION_TYPE = U
NORAD_CAT_ID   = 66968
ELEMENT_SET_NO = 999
REV_AT_EPOCH   = 392
BSTAR          = -.23395E-1
MEAN_MOTION_DOT = -.1954293E-1
MEAN_MOTION_DDOT = 0

CCSDS_OMM_VERS = 2.0
CREATION_DATE  = 
ORIGINATOR     = 

OBJECT_NAME    = STARLINK-36149
OBJECT_ID      = 2025-288L
CENTER_NAME    = EARTH
REF_FRAME      = TEME
TIME_SYSTEM    = UTC
MEAN_ELEMENT_THEORY = SGP/SGP4

EPOCH          = 2025-12-25T18:00:02.000160
MEAN_MOTION    = 15.63387939
ECCENTRICITY   = .0001371
INCLINATION    = 43.0003
RA_OF_ASC_NODE = 87.8375
ARG_OF_PERICENTER = 276.7614
MEAN_ANOMALY   = 339.5893

EPHEMERIS_TYPE = 0
CLASSIFICATION_TYPE = U
NORAD_CAT_ID   = 66969
ELEMENT_SET_NO = 999
REV_AT_EPOCH   = 392
BSTAR          = -.23492E-1
MEAN_MOTION_DOT = -.1961927E-1
MEAN_MOTION_DDOT = 0

CCSDS_OMM_VERS = 2.0
CREATION_DATE  = 
ORIGINATOR     = 

OBJECT_NAME    = STARLINK-35703
OBJECT_ID      = 2025-288M
CENTER_NAME    = EARTH
REF_FRAME      = TEME
TIME_SYSTEM    = UTC
MEAN_ELEMENT_THEORY = SGP/SGP4

EPOCH          = 2025-12-25T18:00:02.000160
MEAN_MOTION    = 15.63387813
ECCENTRICITY   = .0001416
INCLINATION    = 43.0002
RA_OF_ASC_NODE = 87.8176
ARG_OF_PERICENTER = 275.4942
MEAN_ANOMALY   = 348.5278

EPHEMERIS_TYPE = 0
CLASSIFICATION_TYPE = U
NORAD_CAT_ID   = 66970
ELEMENT_SET_NO = 999
REV_AT_EPOCH   = 392
BSTAR          = -.23523E-1
MEAN_MOTION_DOT = -.1964231E-1
MEAN_MOTION_DDOT = 0

CCSDS_OMM_VERS = 2.0
CREATION_DATE  = 
ORIGINATOR     = 

OBJECT_NAME    = STARLINK-35678
OBJECT_ID      = 2025-288N
CENTER_NAME    = EARTH
REF_FRAME      = TEME
TIME_SYSTEM    = UTC
MEAN_ELEMENT_THEORY = SGP/SGP4

EPOCH          = 2025-12-25T18:00:02.000160
MEAN_MOTION    = 15.63390305
ECCENTRICITY   = .0001306
INCLINATION    = 43.0004
RA_OF_ASC_NODE = 87.8575
ARG_OF_PERICENTER = 274.6492
MEAN_ANOMALY   = 334.0344

EPHEMERIS_TYPE = 0
CLASSIFICATION_TYPE = U
NORAD_CAT_ID   = 66971
ELEMENT_SET_NO = 999
REV_AT_EPOCH   = 392
BSTAR          = -.23557E-1
MEAN_MOTION_DOT = -.1966841E-1
MEAN_MOTION_DDOT = 0

CCSDS_OMM_VERS = 2.0
CREATION_DATE  = 
ORIGINATOR     = 

OBJECT_NAME    = STARLINK-34846
OBJECT_ID      = 2025-288P
CENTER_NAME    = EARTH
REF_FRAME      = TEME
TIME_SYSTEM    = UTC
MEAN_ELEMENT_THEORY = SGP/SGP4

EPOCH          = 2025-12-25T18:00:02.000160
MEAN_MOTION    = 15.63389944
ECCENTRICITY   = .0001417
INCLINATION    = 43.0003
RA_OF_ASC_NODE = 87.8524
ARG_OF_PERICENTER = 275.0618
MEAN_ANOMALY   = 335.5394

EPHEMERIS_TYPE = 0
CLASSIFICATION_TYPE = U
NORAD_CAT_ID   = 66972
ELEMENT_SET_NO = 999
REV_AT_EPOCH   = 392
BSTAR          = -.23551E-1
MEAN_MOTION_DOT = -.196646E-1
MEAN_MOTION_DDOT = 0

CCSDS_OMM_VERS = 2.0
CREATION_DATE  = 
ORIGINATOR     = 

OBJECT_NAME    = STARLINK-35778
OBJECT_ID      = 2025-288Q
CENTER_NAME    = EARTH
REF_FRAME      = TEME
TIME_SYSTEM    = UTC
MEAN_ELEMENT_THEORY = SGP/SGP4

EPOCH          = 2025-12-25T18:00:02.000160
MEAN_MOTION    = 15.63388923
ECCENTRICITY   = .0001382
INCLINATION    = 43.0003
RA_OF_ASC_NODE = 87.8478
ARG_OF_PERICENTER = 275.0955
MEAN_ANOMALY   = 337.4233

EPHEMERIS_TYPE = 0
CLASSIFICATION_TYPE = U
NORAD_CAT_ID   = 66973
ELEMENT_SET_NO = 999
REV_AT_EPOCH   = 392
BSTAR          = -.23537E-1
MEAN_MOTION_DOT = -.1965324E-1
MEAN_MOTION_DDOT = 0

CCSDS_OMM_VERS = 2.0
CREATION_DATE  = 
ORIGINATOR     = 

OBJECT_NAME    = STARLINK-35780
OBJECT_ID      = 2025-288R
CENTER_NAME    = EARTH
REF_FRAME      = TEME
TIME_SYSTEM    = UTC
MEAN_ELEMENT_THEORY = SGP/SGP4

EPOCH          = 2025-12-25T18:00:02.000160
MEAN_MOTION    = 15.63388663
ECCENTRICITY   = .0001398
INCLINATION    = 43.0003
RA_OF_ASC_NODE = 87.8433
ARG_OF_PERICENTER = 276.4203
MEAN_ANOMALY   = 338.0152

EPHEMERIS_TYPE = 0
CLASSIFICATION_TYPE = U
NORAD_CAT_ID   = 66974
ELEMENT_SET_NO = 999
REV_AT_EPOCH   = 392
BSTAR          = -.23533E-1
MEAN_MOTION_DOT = -.1964992E-1
MEAN_MOTION_DDOT = 0

CCSDS_OMM_VERS = 2.0
CREATION_DATE  = 
ORIGINATOR     = 

OBJECT_NAME    = STARLINK-35777
OBJECT_ID      = 2025-288S
CENTER_NAME    = EARTH
REF_FRAME      = TEME
TIME_SYSTEM    = UTC
MEAN_ELEMENT_THEORY = SGP/SGP4

EPOCH          = 2025-12-25T18:00:02.000160
MEAN_MOTION    = 15.63388327
ECCENTRICITY   = .0001394
INCLINATION    = 43.0004
RA_OF_ASC_NODE = 87.8330
ARG_OF_PERICENTER = 274.9828
MEAN_ANOMALY   = 343.2854

EPHEMERIS_TYPE = 0
CLASSIFICATION_TYPE = U
NORAD_CAT_ID   = 66975
ELEMENT_SET_NO = 999
REV_AT_EPOCH   = 392
BSTAR          = -.23498E-1
MEAN_MOTION_DOT = -.1962424E-1
MEAN_MOTION_DDOT = 0

