STARLINK-36104          
1 66964U 25288F   25359.75002315 -.01959626  00000+0 -23462-1 0  9990
2 66964  43.0005  87.8808 0001349 277.7935 321.3045 15.63386141  3921
STARLINK-36067          
1 66965U 25288G   25359.75002315 -.01963981  00000+0 -23521-1 0  9996
2 66965  43.0004  87.8765 0001282 275.3863 325.6307 15.63387555  3921
STARLINK-36139          
1 66966U 25288H   25359.75002315 -.01965877  00000+0 -23545-1 0  9999
2 66966  43.0005  87.8714 0001326 275.4422 327.4909 15.63389341  3921
STARLINK-36136          
1 66967U 25288J   25359.75002315 -.01963269  00000+0 -23511-1 0  9996
2 66967  43.0004  87.8666 0001338 275.1960 329.6559 15.63386829  3927
STARLINK-36152          
1 66968U 25288K   25359.75002315 -.01954293  00000+0 -23395-1 0  9994
2 66968  43.0001  87.8618 0001353 276.6352 330.1355 15.63380609  3921
STARLINK-36149          
1 66969U 25288L   25359.75002315 -.01961927  00000+0 -23492-1 0  9995
2 66969  43.0003  87.8375 0001371 276.7614 339.5893 15.63387939  3929
STARLINK-35703          
1 66970U 25288M   25359.75002315 -.01964231  00000+0 -23523-1 0  9993
2 66970  43.0002  87.8176 0001416 275.4942 348.5278 15.63387813  3927
STARLINK-35678          
1 66971U 25288N   25359.75002315 -.01966841  00000+0 -23557-1 0  9990
2 66971  43.0004  87.8575 0001306 274.6492 334.0344 15.63390305  3926
STARLINK-34846          
1 66972U 25288P   25359.75002315 -.01966460  00000+0 -23551-1 0  9992
2 66972  43.0003  87.8524 0001417 275.0618 335.5394 15.63389944  3926
STARLINK-35778          
1 66973U 25288Q   25359.75002315 -.01965324  00000+0 -23537-1 0  9995
2 66973  43.0003  87.8478 0001382 275.0955 337.4233 15.63388923  3929
STARLINK-35780          
1 66974U 25288R   25359.75002315 -.01964992  00000+0 -23533-1 0  9992
2 66974  43.0003  87.8433 0001398 276.4203 338.0152 15.63388663  3927
STARLINK-35777          
1 66975U 25288S   25359.75002315 -.01962424  00000+0 -23498-1 0  9991
2 66975  43.0004  87.8330 0001394 274.9828 343.2854 15.63388327  3921
